[{"OBJECT_NAME":"STARLINK-31879","OBJECT_ID":"2024-106R","EPOCH":"2026-03-09T03:21:35.776224","MEAN_MOTION":15.27580603,"ECCENTRICITY":0.00014128,"INCLINATION":43.0029,"RA_OF_ASC_NODE":336.0628,"ARG_OF_PERICENTER":259.6314,"MEAN_ANOMALY":100.4379,"EPHEMERIS_TYPE":0,"CLASSIFICATION_TYPE":"U","NORAD_CAT_ID":59937,"ELEMENT_SET_NO":999,"REV_AT_EPOCH":10048,"BSTAR":-3.8391973e-5,"MEAN_MOTION_DOT":-1.318e-5,"MEAN_MOTION_DDOT":0},{"OBJECT_NAME":"TEVEL2-7","OBJECT_ID":"2025-052AE","EPOCH":"2026-03-09T15:52:01.887744","MEAN_MOTION":15.28414096,"ECCENTRICITY":0.00081048,"INCLINATION":97.4054,"RA_OF_ASC_NODE":324.3041,"ARG_OF_PERICENTER":124.683,"MEAN_ANOMALY":235.5175,"EPHEMERIS_TYPE":0,"CLASSIFICATION_TYPE":"U","NORAD_CAT_ID":63238,"ELEMENT_SET_NO":999,"REV_AT_EPOCH":5480,"BSTAR":0.00069668191,"MEAN_MOTION_DOT":0.00019244,"MEAN_MOTION_DDOT":0}]
